OBJECT_NAME,OBJECT_ID,EPOCH,MEAN_MOTION,ECCENTRICITY,INCLINATION,RA_OF_ASC_NODE,ARG_OF_PERICENTER,MEAN_ANOMALY,EPHEMERIS_TYPE,CLASSIFICATION_TYPE,NORAD_CAT_ID,ELEMENT_SET_NO,REV_AT_EPOCH,BSTAR,MEAN_MOTION_DOT,MEAN_MOTION_DDOT
STARLINK-4337,2022-077L,2025-10-31T01:15:00.546624,15.01260021,.00021005,97.6034,123.3017,84.6336,275.5128,0,U,53053,999,18146,.96691307E-4,.1184E-4,0
STARLINK-4339,2022-077M,2025-10-31T01:03:06.762528,15.05647688,.00012342,97.6028,123.4719,81.8340,278.3026,0,U,53054,999,18147,.57584398E-4,.77E-5,0
STARLINK-4338,2022-077N,2025-10-31T01:46:57.978624,15.05665750,.00012973,97.5998,123.4187,72.1201,288.0167,0,U,53055,999,18147,.18134169E-3,.2558E-4,0
STARLINK-4314,2022-077P,2025-10-31T06:14:08.108448,15.05644231,.00013849,97.6014,123.6406,83.5204,276.6180,0,U,53056,999,18150,-.48604141E-4,-.762E-5,0
STARLINK-4252,2022-077Q,2025-10-31T05:14:19.963104,15.05645356,.0001802,97.6015,123.6758,85.2022,274.9411,0,U,53057,999,18150,.29817738E-4,.369E-5,0
STARLINK-4317,2022-077R,2025-10-31T01:34:01.511328,15.01256510,.0002421,97.6022,123.2695,178.1165,182.0069,0,U,53058,999,18147,.73363957E-4,.884E-5,0
STARLINK-4320,2022-077S,2025-10-31T01:02:02.074848,15.01263411,.00036336,97.6026,123.2932,64.0950,296.0648,0,U,53059,999,18146,.39805797E-4,.453E-5,0
STARLINK-4305,2022-077T,2025-10-31T01:09:39.898944,15.01302112,.00019588,97.6032,123.2986,64.6842,295.4585,0,U,53060,999,18146,-.64156268E-3,-.8298E-4,0
STARLINK-4308,2022-077U,2025-10-31T00:59:01.148064,15.01275532,.0003463,97.6023,123.2914,64.2472,295.9110,0,U,53061,999,18146,.98911305E-4,.1213E-4,0
STARLINK-4311,2022-077V,2025-10-31T01:04:21.086400,15.01271850,.00028125,97.6028,123.2952,68.2480,291.9044,0,U,53062,999,18146,.74009621E-4,.893E-5,0
STARLINK-4307,2022-077W,2025-10-31T05:38:14.854560,15.05648994,.0002322,97.6042,123.5568,90.2595,269.8898,0,U,53063,999,5308,.13923348E-4,.14E-5,0
STARLINK-4313,2022-077X,2025-10-31T01:07:07.034880,15.05634611,.00016608,97.6020,123.4368,79.5142,280.6272,0,U,53064,999,18147,.27383625E-3,.3891E-4,0
STARLINK-4312,2022-077Y,2025-10-31T02:29:39.895008,15.01259936,.00033306,97.6028,123.3520,48.3656,311.7854,0,U,53065,999,18147,.14457642E-4,.127E-5,0
STARLINK-4309,2022-077Z,2025-10-31T05:39:18.567648,15.01266605,.00037568,97.6023,123.4895,48.8020,311.3528,0,U,53066,999,18149,.29397247E-3,.372E-4,0
STARLINK-4325,2022-077AB,2025-10-31T00:59:07.278144,15.05647972,.00014594,97.6021,123.4279,89.0512,271.0882,0,U,53068,999,18147,.47163314E-4,.62E-5,0
STARLINK-4323,2022-077AC,2025-10-31T02:19:01.475040,15.01248924,.00029994,97.5994,123.3392,65.9590,294.1948,0,U,53069,999,18147,-.16191596E-3,-.2137E-4,0
STARLINK-4342,2022-077AD,2025-10-31T01:39:00.274752,15.05651643,.00015767,97.6009,123.5400,89.5688,270.5719,0,U,53070,999,18148,.47527876E-4,.625E-5,0
STARLINK-4328,2022-077AE,2025-10-31T01:35:01.185216,15.05649258,.00016024,97.6009,123.5271,76.8292,283.3114,0,U,53071,999,18148,.6615157E-5,.35E-6,0
STARLINK-4344,2022-077AF,2025-10-31T01:15:04.033728,15.05648871,.00012769,97.6035,123.4039,77.9099,282.2271,0,U,53072,999,18147,.83827621E-4,.1149E-4,0
STARLINK-4346,2022-077AG,2025-10-31T01:23:12.799392,15.14329951,.00086488,97.6408,125.9678,333.5607,26.5182,0,U,53073,999,18163,.2606604E-2,.48012E-3,0
STARLINK-4310,2022-077AH,2025-10-31T01:11:04.946784,15.05644466,.00019524,97.6029,123.4028,82.0360,278.1089,0,U,53074,999,18147,-.13766897E-4,-.259E-5,0
STARLINK-4348,2022-077AJ,2025-10-31T05:25:37.263936,15.01253665,.00020759,97.6009,123.4527,86.1456,274.0005,0,U,53075,999,18149,.76739397E-4,.927E-5,0
STARLINK-4347,2022-077AK,2025-10-31T05:23:18.392352,15.01262651,.00012643,97.6010,123.4667,96.8512,263.2856,0,U,53076,999,18149,.37396566E-4,.422E-5,0
STARLINK-4322,2022-077AM,2025-10-31T05:20:17.417184,15.01257749,.00016176,97.6009,123.4603,94.1871,265.9538,0,U,53078,999,18149,-.82904789E-4,-.1123E-4,0
STARLINK-4327,2022-077AN,2025-10-31T05:10:20.237664,15.05646455,.00017284,97.6032,123.6122,90.7961,269.3464,0,U,53079,999,18150,.44505133E-4,.581E-5,0
STARLINK-4330,2022-077AP,2025-10-31T05:34:15.230208,15.05649752,.00012541,97.6036,123.5984,96.3863,263.7506,0,U,53080,999,18150,.55698724E-4,.743E-5,0
STARLINK-4326,2022-077AQ,2025-10-31T05:18:00.146592,15.01246914,.00018419,97.6014,123.4445,87.8148,272.3287,0,U,53081,999,18149,-.8964775E-4,-.1209E-4,0
STARLINK-4321,2022-077AR,2025-10-31T05:09:37.599264,15.01270650,.00007666,97.6008,123.4510,46.8422,313.2866,0,U,53082,999,18149,.10395222E-4,.75E-6,0
STARLINK-4251,2022-077AS,2025-10-31T05:26:16.850688,15.05649597,.00023005,97.6049,123.5587,88.0849,272.0641,0,U,53083,999,18150,.70347675E-4,.954E-5,0
STARLINK-4319,2022-077AT,2025-10-31T05:22:17.552064,15.05648870,.00016851,97.6032,123.5907,90.0562,270.0858,0,U,53084,999,18150,.39386614E-4,.508E-5,0
