STARLINK-4337           
1 53053U 22077L   25304.05208966  .00001184  00000+0  96691-4 0  9992
2 53053  97.6034 123.3017 0002100  84.6336 275.5128 15.01260021181465
STARLINK-4339           
1 53054U 22077M   25304.04382827  .00000770  00000+0  57584-4 0  9999
2 53054  97.6028 123.4719 0001234  81.8340 278.3026 15.05647688181471
STARLINK-4338           
1 53055U 22077N   25304.07428216  .00002558  00000+0  18134-3 0  9999
2 53055  97.5998 123.4187 0001297  72.1201 288.0167 15.05665750181478
STARLINK-4314           
1 53056U 22077P   25304.25981607 -.00000762  00000+0 -48604-4 0  9991
2 53056  97.6014 123.6406 0001384  83.5204 276.6180 15.05644231181504
STARLINK-4252           
1 53057U 22077Q   25304.21828661  .00000369  00000+0  29818-4 0  9995
2 53057  97.6015 123.6758 0001802  85.2022 274.9411 15.05645356181505
STARLINK-4317           
1 53058U 22077R   25304.06529527  .00000884  00000+0  73364-4 0  9995
2 53058  97.6022 123.2695 0002421 178.1165 182.0069 15.01256510181478
STARLINK-4320           
1 53059U 22077S   25304.04307957  .00000453  00000+0  39806-4 0  9990
2 53059  97.6026 123.2932 0003633  64.0950 296.0648 15.01263411181464
STARLINK-4305           
1 53060U 22077T   25304.04837846 -.00008298  00000+0 -64156-3 0  9999
2 53060  97.6032 123.2986 0001958  64.6842 295.4585 15.01302112181461
STARLINK-4308           
1 53061U 22077U   25304.04098551  .00001213  00000+0  98911-4 0  9997
2 53061  97.6023 123.2914 0003463  64.2472 295.9110 15.01275532181465
STARLINK-4311           
1 53062U 22077V   25304.04468850  .00000893  00000+0  74010-4 0  9998
2 53062  97.6028 123.2952 0002812  68.2480 291.9044 15.01271850181464
STARLINK-4307           
1 53063U 22077W   25304.23489415  .00000140  00000+0  13923-4 0  9991
2 53063  97.6042 123.5568 0002322  90.2595 269.8898 15.05648994 53083
STARLINK-4313           
1 53064U 22077X   25304.04660920  .00003891  00000+0  27384-3 0  9994
2 53064  97.6020 123.4368 0001660  79.5142 280.6272 15.05634611181472
STARLINK-4312           
1 53065U 22077Y   25304.10393397  .00000127  00000+0  14458-4 0  9991
2 53065  97.6028 123.3520 0003330  48.3656 311.7854 15.01259936181471
STARLINK-4309           
1 53066U 22077Z   25304.23563157  .00003720  00000+0  29397-3 0  9998
2 53066  97.6023 123.4895 0003756  48.8020 311.3528 15.01266605181492
STARLINK-4325           
1 53068U 22077AB  25304.04105646  .00000620  00000+0  47163-4 0  9992
2 53068  97.6021 123.4279 0001459  89.0512 271.0882 15.05647972181476
STARLINK-4323           
1 53069U 22077AC  25304.09654485 -.00002137  00000+0 -16192-3 0  9992
2 53069  97.5994 123.3392 0002999  65.9590 294.1948 15.01248924181478
STARLINK-4342           
1 53070U 22077AD  25304.06875318  .00000625  00000+0  47528-4 0  9997
2 53070  97.6009 123.5400 0001576  89.5688 270.5719 15.05651643181485
STARLINK-4328           
1 53071U 22077AE  25304.06598594  .00000035  00000+0  66152-5 0  9996
2 53071  97.6009 123.5271 0001602  76.8292 283.3114 15.05649258181482
STARLINK-4344           
1 53072U 22077AF  25304.05213002  .00001149  00000+0  83828-4 0  9999
2 53072  97.6035 123.4039 0001276  77.9099 282.2271 15.05648871181478
STARLINK-4346           
1 53073U 22077AG  25304.05778703  .00048012  00000+0  26066-2 0  9993
2 53073  97.6408 125.9678 0008648 333.5607  26.5182 15.14329951181638
STARLINK-4310           
1 53074U 22077AH  25304.04936281 -.00000259  00000+0 -13767-4 0  9999
2 53074  97.6029 123.4028 0001952  82.0360 278.1089 15.05644466181477
STARLINK-4348           
1 53075U 22077AJ  25304.22612574  .00000927  00000+0  76739-4 0  9994
2 53075  97.6009 123.4527 0002075  86.1456 274.0005 15.01253665181496
STARLINK-4347           
1 53076U 22077AK  25304.22451843  .00000422  00000+0  37397-4 0  9992
2 53076  97.6010 123.4667 0001264  96.8512 263.2856 15.01262651181493
STARLINK-4322           
1 53078U 22077AM  25304.22242381 -.00001123  00000+0 -82905-4 0  9995
2 53078  97.6009 123.4603 0001617  94.1871 265.9538 15.01257749181492
STARLINK-4327           
1 53079U 22077AN  25304.21551201  .00000581  00000+0  44505-4 0  9998
2 53079  97.6032 123.6122 0001728  90.7961 269.3464 15.05646455181500
STARLINK-4330           
1 53080U 22077AP  25304.23212072  .00000743  00000+0  55699-4 0  9998
2 53080  97.6036 123.5984 0001254  96.3863 263.7506 15.05649752181506
STARLINK-4326           
1 53081U 22077AQ  25304.22083503 -.00001209  00000+0 -89648-4 0  9994
2 53081  97.6014 123.4445 0001841  87.8148 272.3287 15.01246914181496
STARLINK-4321           
1 53082U 22077AR  25304.21501851  .00000075  00000+0  10395-4 0  9996
2 53082  97.6008 123.4510 0000766  46.8422 313.2866 15.01270650181490
STARLINK-4251           
1 53083U 22077AS  25304.22658392  .00000954  00000+0  70348-4 0  9991
2 53083  97.6049 123.5587 0002300  88.0849 272.0641 15.05649597181507
STARLINK-4319           
1 53084U 22077AT  25304.22381426  .00000508  00000+0  39387-4 0  9996
2 53084  97.6032 123.5907 0001685  90.0562 270.0858 15.05648870181507
